H-2A R/B                
1 28932U 06002B   26183.41174797  .00008990  00000+0  42834-3 0  9991
2 28932  98.2580 340.6205 0050027 209.6253 150.2144 15.18272841111839
RESURS-DK 1             
1 29228U 06021A   26183.56932741  .00002490  00000+0  14561-3 0  9993
2 29228  69.9340 299.7346 0006697 284.6175  75.4249 15.13280401104907
CZ-4B R/B               
1 29507U 06046C   26183.54751343  .00004964  00000+0  24527-3 0  9996
2 29507  97.5436 228.1071 0031426 226.7926 133.0682 15.17896573 77469
CZ-2C R/B               
1 31114U 07010B   26183.55856962  .00000105  00000+0  67406-4 0  9996
2 31114  98.4113 291.1587 0058155 321.1829  38.5178 14.20279539996021
COSMO-SKYMED 1          
1 31598U 07023A   26183.57400097  .00002085  00000+0  18557-3 0  9993
2 31598  97.8853  15.5597 0001353  82.8894 277.2481 14.97176838 32090
COSMOS 2428             
1 31792U 07029A   26183.64800497  .00000071  00000+0  63924-4 0  9993
2 31792  70.9379 322.0146 0007127 105.4417 254.7492 14.12928860980333
SL-16 R/B               
1 31793U 07029B   26183.58294848 -.00000238  00000+0 -98624-4 0  9996
2 31793  70.9766 290.8651 0002409 261.4577 110.1084 14.14852811981624
KORONAS-FOTON           
1 33504U 09003A   26183.48438335  .00011917  00000+0  24242-3 0  9990
2 33504  82.4296 156.2979 0012662 100.9837 259.2837 15.46044355963463
CZ-2C R/B               
1 37731U 11030B   26183.66386201  .00001430  00000+0  18512-3 0  9995
2 37731  97.8662 138.7715 0051709 337.7692 195.0727 14.81510183807112
H-2A R/B                
1 38341U 12025E   26183.54309581  .00003368  00000+0  30277-3 0  9995
2 38341  98.4832 159.9553 0042409 297.6444  62.0472 14.95791372765385
SHIJIAN-16 (SJ-16)      
1 39358U 13057A   26183.65555002  .00001371  00000+0  13566-3 0  9997
2 39358  74.9736 327.3841 0016333 194.7673 165.3041 14.92636746688658
SL-4 R/B                
1 39679U 14021B   26183.16313618  .00012140  00000+0  24824-3 0  9991
2 39679  51.6050 137.3882 0090495 160.6340 199.8121 15.42247380673926
ALOS-2                  
1 39766U 14029A   26181.86863941  .00000732  00000+0  10488-3 0  9995
2 39766  97.9232 278.8362 0001598  87.5110 272.6284 14.79474729653601
YAOGAN-29               
1 41038U 15069A   26183.62794169  .00000423  00000+0  58582-4 0  9991
2 41038  98.0016 212.2847 0001732  29.0205 331.1104 14.83097073572918
ASTRO-H (HITOMI)        
1 41337U 16012A   26183.62893232  .00003212  00000+0  18405-3 0  9991
2 41337  31.0004 334.4568 0009592  48.0454 312.1001 15.10583805569623
HXMT (HUIYAN)           
1 42758U 17034A   26183.59179558  .00004993  00000+0  24516-3 0  9995
2 42758  43.0145  97.2575 0032734 244.0583 115.6891 15.18591976500003
SAOCOM 1A               
1 43641U 18076A   26183.66347172  .00000223  00000+0  34613-4 0  9993
2 43641  97.8877  10.1864 0001520  79.9934 280.1450 14.82158531418398
H-2A R/B                
1 43682U 18084L   26183.60279545  .00022135  00000+0  45512-3 0  9994
2 43682  98.8551  65.8664 0021753 346.7564  13.3106 15.45760372423507
SAOCOM 1B               
1 46265U 20059A   26183.62716855  .00000789  00000+0  10567-3 0  9994
2 46265  97.8883   9.2464 0001622  82.3156 277.8241 14.82152239315770
CSS (TIANHE)            
1 48274U 21035A   26183.07469613  .00005862  00000+0  70552-4 0  9995
2 48274  41.4669 231.3605 0008782 197.5526 162.5011 15.61404719295490
COSMOS 2550             
1 48865U 21056A   26183.60863646  .00005776  00000+0  18098-3 0  9997
2 48865  67.1431  53.2568 0008371 268.5560  91.4636 15.33877057281089
CZ-2C R/B               
1 52794U 22058K   26183.01632907  .00045067  00000+0  47892-3 0  9996
2 52794  50.1857  86.2996 0031492 328.4416  31.4668 15.62915214227962
CZ-2C R/B               
1 54039U 22132E   26183.48949591  .00070162  00000+0  50157-3 0  9996
2 54039  97.2890 191.2164 0012492  33.7958 326.4100 15.73439393208356
GSLV R/B                
1 54149U 22138AN  26183.55609435  .00002844  00000+0  24128-3 0  9993
2 54149  87.3815 127.8235 0024187  93.3808 267.0191 14.97330403201113
XRISM                   
1 57800U 23137A   26183.50084024  .00005193  00000+0  28458-3 0  9996
2 57800  31.0016 260.3995 0007763 118.3891 241.7531 15.12596965155183
ACS3                    
1 59588U 24077B   26183.48909619  .00034659  00000+0  24566-1 0  9991
2 59588  97.1708  98.8761 0107873  50.3297 310.7324 13.94735757110171
CZ-8A R/B               
1 66004U 25231K   26183.14487663 -.00000013  00000+0  53450-4 0  9993
2 66004  50.0054 335.6799 0116491 276.6610  82.1058 14.30159039 37081
SZ-21 MODULE            
1 66515U 25246C   26182.40131714  .00056541  00000+0  32796-3 0  9992
2 66515  41.4702 218.7196 0005083 112.0271 248.1115 15.77622240 35980
