OBJECT_NAME,OBJECT_ID,EPOCH,MEAN_MOTION,ECCENTRICITY,INCLINATION,RA_OF_ASC_NODE,ARG_OF_PERICENTER,MEAN_ANOMALY,EPHEMERIS_TYPE,CLASSIFICATION_TYPE,NORAD_CAT_ID,ELEMENT_SET_NO,REV_AT_EPOCH,BSTAR,MEAN_MOTION_DOT,MEAN_MOTION_DDOT
H-2A R/B,2006-002B,2026-07-02T09:52:55.024608,15.18272841,.00500275,98.2580,340.6205,209.6253,150.2144,0,U,28932,999,11183,.42834103E-3,.899E-4,0
RESURS-DK 1,2006-021A,2026-07-02T13:39:49.888224,15.13280401,.00066975,69.9340,299.7346,284.6175,75.4249,0,U,29228,999,10490,.14561341E-3,.249E-4,0
CZ-4B R/B,2006-046C,2026-07-02T13:08:25.160352,15.17896573,.00314265,97.5436,228.1071,226.7926,133.0682,0,U,29507,999,7746,.24527079E-3,.4964E-4,0
CZ-2C R/B,2007-010B,2026-07-02T13:24:20.415168,14.20279539,.00581555,98.4113,291.1587,321.1829,38.5178,0,U,31114,999,99602,.67406005E-4,.105E-5,0
COSMO-SKYMED 1,2007-023A,2026-07-02T13:46:33.683808,14.97176838,.00013536,97.8853,15.5597,82.8894,277.2481,0,U,31598,999,3209,.18557391E-3,.2085E-4,0
COSMOS 2428,2007-029A,2026-07-02T15:33:07.629408,14.12928860,.00071273,70.9379,322.0146,105.4417,254.7492,0,U,31792,999,98033,.63923886E-4,.71E-6,0
SL-16 R/B,2007-029B,2026-07-02T13:59:26.748672,14.14852811,.0002409,70.9766,290.8651,261.4577,110.1084,0,U,31793,999,98162,-.98624336E-4,-.238E-5,0
KORONAS-FOTON,2009-003A,2026-07-02T11:37:30.721440,15.46044355,.00126628,82.4296,156.2979,100.9837,259.2837,0,U,33504,999,96346,.24241692E-3,.11917E-3,0
CZ-2C R/B,2011-030B,2026-07-02T15:55:57.677664,14.81510183,.00517096,97.8662,138.7715,337.7692,195.0727,0,U,37731,999,80711,.18511907E-3,.143E-4,0
H-2A R/B,2012-025E,2026-07-02T13:02:03.477984,14.95791372,.00424093,98.4832,159.9553,297.6444,62.0472,0,U,38341,999,76538,.30276613E-3,.3368E-4,0
SHIJIAN-16 (SJ-16),2013-057A,2026-07-02T15:43:59.521728,14.92636746,.00163333,74.9736,327.3841,194.7673,165.3041,0,U,39358,999,68865,.1356586E-3,.1371E-4,0
SL-4 R/B,2014-021B,2026-07-02T03:54:54.965952,15.42247380,.00904952,51.6050,137.3882,160.6340,199.8121,0,U,39679,999,67392,.24823517E-3,.1214E-3,0
ALOS-2,2014-029A,2026-06-30T20:50:50.445024,14.79474729,.0001598,97.9232,278.8362,87.5110,272.6284,0,U,39766,999,65360,.10488E-3,.732E-5,0
YAOGAN-29,2015-069A,2026-07-02T15:04:14.162016,14.83097073,.0001732,98.0016,212.2847,29.0205,331.1104,0,U,41038,999,57291,.58582213E-4,.423E-5,0
ASTRO-H (HITOMI),2016-012A,2026-07-02T15:05:39.752448,15.10583805,.00095929,31.0004,334.4568,48.0454,312.1001,0,U,41337,999,56962,.18405348E-3,.3212E-4,0
HXMT (HUIYAN),2017-034A,2026-07-02T14:12:11.138112,15.18591976,.00327342,43.0145,97.2575,244.0583,115.6891,0,U,42758,999,50000,.24516225E-3,.4993E-4,0
SAOCOM 1A,2018-076A,2026-07-02T15:55:23.956608,14.82158531,.00015202,97.8877,10.1864,79.9934,280.1450,0,U,43641,999,41839,.3461281E-4,.223E-5,0
H-2A R/B,2018-084L,2026-07-02T14:28:01.526880,15.45760372,.00217538,98.8551,65.8664,346.7564,13.3106,0,U,43682,999,42350,.4551159E-3,.22135E-3,0
SAOCOM 1B,2020-059A,2026-07-02T15:03:07.362720,14.82152239,.00016227,97.8883,9.2464,82.3156,277.8241,0,U,46265,999,31577,.10567067E-3,.789E-5,0
CSS (TIANHE),2021-035A,2026-07-02T01:47:33.745632,15.61404719,.00087824,41.4669,231.3605,197.5526,162.5011,0,U,48274,999,29549,.70551523E-4,.5862E-4,0
COSMOS 2550,2021-056A,2026-07-02T14:36:26.190144,15.33877057,.00083712,67.1431,53.2568,268.5560,91.4636,0,U,48865,999,28108,.18098351E-3,.5776E-4,0
CZ-2C R/B,2022-058K,2026-07-02T00:23:30.831648,15.62915214,.00314922,50.1857,86.2996,328.4416,31.4668,0,U,52794,999,22796,.47891885E-3,.45067E-3,0
CZ-2C R/B,2022-132E,2026-07-02T11:44:52.446624,15.73439393,.00124927,97.2890,191.2164,33.7958,326.4100,0,U,54039,999,20835,.50157274E-3,.70162E-3,0
GSLV R/B,2022-138AN,2026-07-02T13:20:46.551840,14.97330403,.00241879,87.3815,127.8235,93.3808,267.0191,0,U,54149,999,20111,.24128413E-3,.2844E-4,0
XRISM,2023-137A,2026-07-02T12:01:12.596736,15.12596965,.00077639,31.0016,260.3995,118.3891,241.7531,0,U,57800,999,15518,.28458224E-3,.5193E-4,0
ACS3,2024-077B,2026-07-02T11:44:17.910816,13.94735757,.01078736,97.1708,98.8761,50.3297,310.7324,0,U,59588,999,11017,.24565781E-1,.34659E-3,0
CZ-8A R/B,2025-231K,2026-07-02T03:28:37.340832,14.30159039,.01164913,50.0054,335.6799,276.6610,82.1058,0,U,66004,999,3708,.5345042E-4,-.13E-6,0
SZ-21 MODULE,2025-246C,2026-07-01T09:37:53.800896,15.77622240,.00050833,41.4702,218.7196,112.0271,248.1115,0,U,66515,999,3598,.32796125E-3,.56541E-3,0
